[
  {
    "OBJECT_NAME": "STARLINK-11274 [DTC]",
    "OBJECT_ID": "24158M",
    "EPOCH": "2025-11-11T05:59:56.331456",
    "MEAN_MOTION": 15.69736358,
    "ECCENTRICITY": 8.1e-05,
    "INCLINATION": 53.1597,
    "RA_OF_ASC_NODE": 145.0323,
    "ARG_OF_PERICENTER": 70.1406,
    "MEAN_ANOMALY": 289.9699,
    "EPHEMERIS_TYPE": 0,
    "CLASSIFICATION_TYPE": "U",
    "NORAD_CAT_ID": 61001,
    "ELEMENT_SET_NO": 999,
    "REV_AT_EPOCH": 6898,
    "BSTAR": 0.0,
    "MEAN_MOTION_DOT": -2.945e-05,
    "MEAN_MOTION_DDOT": 0.0,
    "TLE_LINE1": "1 61001U 24158M   25315.24995754 -.00002945  00000+0 -19437-4 0  9998",
    "TLE_LINE2": "2 61001  53.1597 145.0323 0000810  70.1406 289.9699 15.69736358 68981",
    "COMMENT": "Grouped by shell and plane from TLE"
  },
  {
    "OBJECT_NAME": "STARLINK-11288 [DTC]",
    "OBJECT_ID": "24158N",
    "EPOCH": "2025-11-10T22:14:28.027392",
    "MEAN_MOTION": 15.69706703,
    "ECCENTRICITY": 0.0002025,
    "INCLINATION": 53.1553,
    "RA_OF_ASC_NODE": 146.5684,
    "ARG_OF_PERICENTER": 130.4995,
    "MEAN_ANOMALY": 229.62,
    "EPHEMERIS_TYPE": 0,
    "CLASSIFICATION_TYPE": "U",
    "NORAD_CAT_ID": 61002,
    "ELEMENT_SET_NO": 999,
    "REV_AT_EPOCH": 6893,
    "BSTAR": 1.8293000000000003e-05,
    "MEAN_MOTION_DOT": 1.626e-05,
    "MEAN_MOTION_DDOT": 0.0,
    "TLE_LINE1": "1 61002U 24158N   25314.92671328  .00001626  00000+0  18293-4 0  9993",
    "TLE_LINE2": "2 61002  53.1553 146.5684 0002025 130.4995 229.6200 15.69706703 68938",
    "COMMENT": "Grouped by shell and plane from TLE"
  },
  {
    "OBJECT_NAME": "STARLINK-11665 [DTC]",
    "OBJECT_ID": "25075B",
    "EPOCH": "2025-11-11T06:17:16.468224",
    "MEAN_MOTION": 15.70985006,
    "ECCENTRICITY": 0.0001795,
    "INCLINATION": 43.0005,
    "RA_OF_ASC_NODE": 147.5917,
    "ARG_OF_PERICENTER": 286.6351,
    "MEAN_ANOMALY": 73.432,
    "EPHEMERIS_TYPE": 0,
    "CLASSIFICATION_TYPE": "U",
    "NORAD_CAT_ID": 63549,
    "ELEMENT_SET_NO": 999,
    "REV_AT_EPOCH": 3462,
    "BSTAR": 0.0031045,
    "MEAN_MOTION_DOT": 0.00421323,
    "MEAN_MOTION_DDOT": 0.0,
    "TLE_LINE1": "1 63549U 25075B   25315.26199616  .00421323  00000+0  31045-2 0  9991",
    "TLE_LINE2": "2 63549  43.0005 147.5917 0001795 286.6351  73.4320 15.70985006 34623",
    "COMMENT": "Grouped by shell and plane from TLE"
  },
  {
    "OBJECT_NAME": "STARLINK-11695 [DTC]",
    "OBJECT_ID": "25075D",
    "EPOCH": "2025-11-10T22:02:33.921888",
    "MEAN_MOTION": 15.70969053,
    "ECCENTRICITY": 0.0001616,
    "INCLINATION": 43.0,
    "RA_OF_ASC_NODE": 149.2988,
    "ARG_OF_PERICENTER": 296.3274,
    "MEAN_ANOMALY": 63.7427,
    "EPHEMERIS_TYPE": 0,
    "CLASSIFICATION_TYPE": "U",
    "NORAD_CAT_ID": 63551,
    "ELEMENT_SET_NO": 999,
    "REV_AT_EPOCH": 3457,
    "BSTAR": 0.0032659,
    "MEAN_MOTION_DOT": 0.00444202,
    "MEAN_MOTION_DDOT": 0.0,
    "TLE_LINE1": "1 63551U 25075D   25314.91844817  .00444202  00000+0  32659-2 0  9998",
    "TLE_LINE2": "2 63551  43.0000 149.2988 0001616 296.3274  63.7427 15.70969053 34570",
    "COMMENT": "Grouped by shell and plane from TLE"
  },
  {
    "OBJECT_NAME": "STARLINK-11685 [DTC]",
    "OBJECT_ID": "25075E",
    "EPOCH": "2025-11-10T22:16:32.627424",
    "MEAN_MOTION": 15.70915944,
    "ECCENTRICITY": 0.0002043,
    "INCLINATION": 43.0006,
    "RA_OF_ASC_NODE": 149.3774,
    "ARG_OF_PERICENTER": 282.4581,
    "MEAN_ANOMALY": 77.6058,
    "EPHEMERIS_TYPE": 0,
    "CLASSIFICATION_TYPE": "U",
    "NORAD_CAT_ID": 63552,
    "ELEMENT_SET_NO": 999,
    "REV_AT_EPOCH": 3457,
    "BSTAR": 0.0021684,
    "MEAN_MOTION_DOT": 0.00288587,
    "MEAN_MOTION_DDOT": 0.0,
    "TLE_LINE1": "1 63552U 25075E   25314.92815541  .00288587  00000+0  21684-2 0  9990",
    "TLE_LINE2": "2 63552  43.0006 149.3774 0002043 282.4581  77.6058 15.70915944 34577",
    "COMMENT": "Grouped by shell and plane from TLE"
  },
  {
    "OBJECT_NAME": "STARLINK-11697 [DTC]",
    "OBJECT_ID": "25075F",
    "EPOCH": "2025-11-10T22:24:11.276640",
    "MEAN_MOTION": 15.70926702,
    "ECCENTRICITY": 0.0001709,
    "INCLINATION": 42.9996,
    "RA_OF_ASC_NODE": 149.4193,
    "ARG_OF_PERICENTER": 285.7086,
    "MEAN_ANOMALY": 74.3593,
    "EPHEMERIS_TYPE": 0,
    "CLASSIFICATION_TYPE": "U",
    "NORAD_CAT_ID": 63553,
    "ELEMENT_SET_NO": 999,
    "REV_AT_EPOCH": 3457,
    "BSTAR": 0.0021304,
    "MEAN_MOTION_DOT": 0.00283476,
    "MEAN_MOTION_DDOT": 0.0,
    "TLE_LINE1": "1 63553U 25075F   25314.93346385  .00283476  00000+0  21304-2 0  9998",
    "TLE_LINE2": "2 63553  42.9996 149.4193 0001709 285.7086  74.3593 15.70926702 34576",
    "COMMENT": "Grouped by shell and plane from TLE"
  },
  {
    "OBJECT_NAME": "STARLINK-11680 [DTC]",
    "OBJECT_ID": "25075G",
    "EPOCH": "2025-11-11T00:33:58.469760",
    "MEAN_MOTION": 15.709653,
    "ECCENTRICITY": 0.0001953,
    "INCLINATION": 42.9999,
    "RA_OF_ASC_NODE": 149.2496,
    "ARG_OF_PERICENTER": 276.9741,
    "MEAN_ANOMALY": 83.0904,
    "EPHEMERIS_TYPE": 0,
    "CLASSIFICATION_TYPE": "U",
    "NORAD_CAT_ID": 63554,
    "ELEMENT_SET_NO": 999,
    "REV_AT_EPOCH": 3458,
    "BSTAR": 0.0024087,
    "MEAN_MOTION_DOT": 0.0032261,
    "MEAN_MOTION_DDOT": 0.0,
    "TLE_LINE1": "1 63554U 25075G   25315.02359340  .00322610  00000+0  24087-2 0  9990",
    "TLE_LINE2": "2 63554  42.9999 149.2496 0001953 276.9741  83.0904 15.70965300 34586",
    "COMMENT": "Grouped by shell and plane from TLE"
  },
  {
    "OBJECT_NAME": "STARLINK-11687 [DTC]",
    "OBJECT_ID": "25075H",
    "EPOCH": "2025-11-10T22:47:06.803520",
    "MEAN_MOTION": 15.70851784,
    "ECCENTRICITY": 0.000181,
    "INCLINATION": 43.001,
    "RA_OF_ASC_NODE": 149.5473,
    "ARG_OF_PERICENTER": 284.4672,
    "MEAN_ANOMALY": 75.5995,
    "EPHEMERIS_TYPE": 0,
    "CLASSIFICATION_TYPE": "U",
    "NORAD_CAT_ID": 63555,
    "ELEMENT_SET_NO": 999,
    "REV_AT_EPOCH": 3457,
    "BSTAR": 0.001478,
    "MEAN_MOTION_DOT": 0.00193787,
    "MEAN_MOTION_DDOT": 0.0,
    "TLE_LINE1": "1 63555U 25075H   25314.94938430  .00193787  00000+0  14780-2 0  9994",
    "TLE_LINE2": "2 63555  43.0010 149.5473 0001810 284.4672  75.5995 15.70851784 34575",
    "COMMENT": "Grouped by shell and plane from TLE"
  },
  {
    "OBJECT_NAME": "STARLINK-11657 [DTC]",
    "OBJECT_ID": "25075L",
    "EPOCH": "2025-11-10T22:54:45.318816",
    "MEAN_MOTION": 15.70938471,
    "ECCENTRICITY": 0.0002384,
    "INCLINATION": 42.9982,
    "RA_OF_ASC_NODE": 149.587,
    "ARG_OF_PERICENTER": 268.9911,
    "MEAN_ANOMALY": 91.0683,
    "EPHEMERIS_TYPE": 0,
    "CLASSIFICATION_TYPE": "U",
    "NORAD_CAT_ID": 63558,
    "ELEMENT_SET_NO": 999,
    "REV_AT_EPOCH": 3457,
    "BSTAR": 0.0017319000000000002,
    "MEAN_MOTION_DOT": 0.00228956,
    "MEAN_MOTION_DDOT": 0.0,
    "TLE_LINE1": "1 63558U 25075L   25314.95469119  .00228956  00000+0  17319-2 0  9999",
    "TLE_LINE2": "2 63558  42.9982 149.5870 0002384 268.9911  91.0683 15.70938471 34571",
    "COMMENT": "Grouped by shell and plane from TLE"
  },
  {
    "OBJECT_NAME": "STARLINK-11606 [DTC]",
    "OBJECT_ID": "25075M",
    "EPOCH": "2025-11-11T05:46:41.863584",
    "MEAN_MOTION": 15.70923335,
    "ECCENTRICITY": 8.05e-05,
    "INCLINATION": 43.0008,
    "RA_OF_ASC_NODE": 147.4139,
    "ARG_OF_PERICENTER": 320.5953,
    "MEAN_ANOMALY": 39.4856,
    "EPHEMERIS_TYPE": 0,
    "CLASSIFICATION_TYPE": "U",
    "NORAD_CAT_ID": 63559,
    "ELEMENT_SET_NO": 999,
    "REV_AT_EPOCH": 3462,
    "BSTAR": 0.0022307,
    "MEAN_MOTION_DOT": 0.00297301,
    "MEAN_MOTION_DDOT": 0.0,
    "TLE_LINE1": "1 63559U 25075M   25315.24076231  .00297301  00000+0  22307-2 0  9995",
    "TLE_LINE2": "2 63559  43.0008 147.4139 0000805 320.5953  39.4856 15.70923335 34622",
    "COMMENT": "Grouped by shell and plane from TLE"
  },
  {
    "OBJECT_NAME": "STARLINK-11592 [DTC]",
    "OBJECT_ID": "25075N",
    "EPOCH": "2025-11-10T22:31:49.761696",
    "MEAN_MOTION": 15.70915813,
    "ECCENTRICITY": 0.0002057,
    "INCLINATION": 43.0012,
    "RA_OF_ASC_NODE": 149.4586,
    "ARG_OF_PERICENTER": 278.5872,
    "MEAN_ANOMALY": 81.4762,
    "EPHEMERIS_TYPE": 0,
    "CLASSIFICATION_TYPE": "U",
    "NORAD_CAT_ID": 63560,
    "ELEMENT_SET_NO": 999,
    "REV_AT_EPOCH": 3457,
    "BSTAR": 0.0020449,
    "MEAN_MOTION_DOT": 0.00271557,
    "MEAN_MOTION_DDOT": 0.0,
    "TLE_LINE1": "1 63560U 25075N   25314.93877039  .00271557  00000+0  20449-2 0  9997",
    "TLE_LINE2": "2 63560  43.0012 149.4586 0002057 278.5872  81.4762 15.70915813 34579",
    "COMMENT": "Grouped by shell and plane from TLE"
  }
]